SL-16 R/B               
1 25407U 98045B   26089.19798321 -.00000208  00000+0 -80667-4 0  9991
2 25407  71.0098 138.4483 0008033 336.8390  23.2370 14.16193600430007
ISS (ZARYA)             
1 25544U 98067A   26089.16515940  .00012299  00000+0  23377-3 0  9993
2 25544  51.6344 331.1363 0006182 249.8595 110.1729 15.48649503559504
CZ-4B R/B               
1 25732U 99025C   26089.11684666  .00000056  00000+0  48193-4 0  9996
2 25732  98.6585 132.9108 0036006 286.5580  95.7440 14.18269307391064
OKEAN-O                 
1 25860U 99039A   26089.13254363  .00000870  00000+0  12079-3 0  9999
2 25860  97.9400 148.8120 0000855  94.8275 265.3035 14.80368497437412
SL-16 R/B               
1 25861U 99039B   26089.16073227  .00000749  00000+0  10160-3 0  9995
2 25861  97.9921 148.2224 0014660 185.8471 174.2573 14.81759692439899
DELTA 2 R/B             
1 25876U 99041E   26089.04195180  .00001123  00000+0  21979-3 0  9991
2 25876  51.7607 219.9785 0502658  48.4500 315.8423 14.11884377365907
HELIOS 1B               
1 25977U 99064A   26089.22725588  .00002108  00000+0  23738-3 0  9998
2 25977  98.1673 352.0722 0001739  47.1578 312.9784 14.87777543688312
TERRA                   
1 25994U 99068A   26089.25687390  .00000572  00000+0  12561-3 0  9997
2 25994  97.9549 141.9015 0003598 108.8315 290.3882 14.61036689398080
SL-16 R/B               
1 26070U 00006B   26089.21876461  .00000318  00000+0  18595-3 0  9993
2 26070  71.0026  54.6677 0015625 157.7080 202.4726 14.15828263351467
TITAN 4B R/B            
1 26474U 00047B   26089.16894033  .00005128  00000+0  31932-3 0  9999
2 26474  67.9917 342.9173 0039865  11.3871 348.8170 15.09752161396001
ENVISAT                 
1 27386U 02009A   26089.28284400  .00000144  00000+0  60486-4 0  9996
2 27386  98.3761  42.3942 0001212  81.8467  83.4383 14.39044102262137
IDEFIX & ARIANE 42P R/B 
1 27422U 02021B   26089.05223306  .00000328  00000+0  14104-3 0  9993
2 27422  98.5893  27.4179 0012641 124.2025 236.0358 14.31039901246933
