CCSDS_OMM_VERS = 2.0
CREATION_DATE  = 
ORIGINATOR     = 

OBJECT_NAME    = SL-16 R/B
OBJECT_ID      = 1998-045B
CENTER_NAME    = EARTH
REF_FRAME      = TEME
TIME_SYSTEM    = UTC
MEAN_ELEMENT_THEORY = SGP/SGP4

EPOCH          = 2026-03-30T04:45:05.749344
MEAN_MOTION    = 14.16193600
ECCENTRICITY   = .0008033
INCLINATION    = 71.0098
RA_OF_ASC_NODE = 138.4483
ARG_OF_PERICENTER = 336.8390
MEAN_ANOMALY   = 23.2370

EPHEMERIS_TYPE = 0
CLASSIFICATION_TYPE = U
NORAD_CAT_ID   = 25407
ELEMENT_SET_NO = 999
REV_AT_EPOCH   = 43000
BSTAR          = -.80666519E-4
MEAN_MOTION_DOT = -.208E-5
MEAN_MOTION_DDOT = 0

CCSDS_OMM_VERS = 2.0
CREATION_DATE  = 
ORIGINATOR     = 

OBJECT_NAME    = ISS (ZARYA)
OBJECT_ID      = 1998-067A
CENTER_NAME    = EARTH
REF_FRAME      = TEME
TIME_SYSTEM    = UTC
MEAN_ELEMENT_THEORY = SGP/SGP4

EPOCH          = 2026-03-30T03:57:49.772160
MEAN_MOTION    = 15.48649503
ECCENTRICITY   = .00061822
INCLINATION    = 51.6344
RA_OF_ASC_NODE = 331.1363
ARG_OF_PERICENTER = 249.8595
MEAN_ANOMALY   = 110.1729

EPHEMERIS_TYPE = 0
CLASSIFICATION_TYPE = U
NORAD_CAT_ID   = 25544
ELEMENT_SET_NO = 999
REV_AT_EPOCH   = 55950
BSTAR          = .2337745E-3
MEAN_MOTION_DOT = .12299E-3
MEAN_MOTION_DDOT = 0

CCSDS_OMM_VERS = 2.0
CREATION_DATE  = 
ORIGINATOR     = 

OBJECT_NAME    = CZ-4B R/B
OBJECT_ID      = 1999-025C
CENTER_NAME    = EARTH
REF_FRAME      = TEME
TIME_SYSTEM    = UTC
MEAN_ELEMENT_THEORY = SGP/SGP4

EPOCH          = 2026-03-30T02:48:15.551424
MEAN_MOTION    = 14.18269307
ECCENTRICITY   = .00360068
INCLINATION    = 98.6585
RA_OF_ASC_NODE = 132.9108
ARG_OF_PERICENTER = 286.5580
MEAN_ANOMALY   = 95.7440

EPHEMERIS_TYPE = 0
CLASSIFICATION_TYPE = U
NORAD_CAT_ID   = 25732
ELEMENT_SET_NO = 999
REV_AT_EPOCH   = 39106
BSTAR          = .48193347E-4
MEAN_MOTION_DOT = .56E-6
MEAN_MOTION_DDOT = 0

CCSDS_OMM_VERS = 2.0
CREATION_DATE  = 
ORIGINATOR     = 

OBJECT_NAME    = OKEAN-O
OBJECT_ID      = 1999-039A
CENTER_NAME    = EARTH
REF_FRAME      = TEME
TIME_SYSTEM    = UTC
MEAN_ELEMENT_THEORY = SGP/SGP4

EPOCH          = 2026-03-30T03:10:51.769632
MEAN_MOTION    = 14.80368497
ECCENTRICITY   = .00008559
INCLINATION    = 97.9400
RA_OF_ASC_NODE = 148.8120
ARG_OF_PERICENTER = 94.8275
MEAN_ANOMALY   = 265.3035

EPHEMERIS_TYPE = 0
CLASSIFICATION_TYPE = U
NORAD_CAT_ID   = 25860
ELEMENT_SET_NO = 999
REV_AT_EPOCH   = 43741
BSTAR          = .12079368E-3
MEAN_MOTION_DOT = .87E-5
MEAN_MOTION_DDOT = 0

CCSDS_OMM_VERS = 2.0
CREATION_DATE  = 
ORIGINATOR     = 

OBJECT_NAME    = SL-16 R/B
OBJECT_ID      = 1999-039B
CENTER_NAME    = EARTH
REF_FRAME      = TEME
TIME_SYSTEM    = UTC
MEAN_ELEMENT_THEORY = SGP/SGP4

EPOCH          = 2026-03-30T03:51:27.268128
MEAN_MOTION    = 14.81759692
ECCENTRICITY   = .001466
INCLINATION    = 97.9921
RA_OF_ASC_NODE = 148.2224
ARG_OF_PERICENTER = 185.8471
MEAN_ANOMALY   = 174.2573

EPHEMERIS_TYPE = 0
CLASSIFICATION_TYPE = U
NORAD_CAT_ID   = 25861
ELEMENT_SET_NO = 999
REV_AT_EPOCH   = 43989
BSTAR          = .1016E-3
MEAN_MOTION_DOT = .749E-5
MEAN_MOTION_DDOT = 0

CCSDS_OMM_VERS = 2.0
CREATION_DATE  = 
ORIGINATOR     = 

OBJECT_NAME    = DELTA 2 R/B
OBJECT_ID      = 1999-041E
CENTER_NAME    = EARTH
REF_FRAME      = TEME
TIME_SYSTEM    = UTC
MEAN_ELEMENT_THEORY = SGP/SGP4

EPOCH          = 2026-03-30T01:00:24.635520
MEAN_MOTION    = 14.11884377
ECCENTRICITY   = .05026584
INCLINATION    = 51.7607
RA_OF_ASC_NODE = 219.9785
ARG_OF_PERICENTER = 48.4500
MEAN_ANOMALY   = 315.8423

EPHEMERIS_TYPE = 0
CLASSIFICATION_TYPE = U
NORAD_CAT_ID   = 25876
ELEMENT_SET_NO = 999
REV_AT_EPOCH   = 36590
BSTAR          = .21979011E-3
MEAN_MOTION_DOT = .1123E-4
MEAN_MOTION_DDOT = 0

CCSDS_OMM_VERS = 2.0
CREATION_DATE  = 
ORIGINATOR     = 

OBJECT_NAME    = HELIOS 1B
OBJECT_ID      = 1999-064A
CENTER_NAME    = EARTH
REF_FRAME      = TEME
TIME_SYSTEM    = UTC
MEAN_ELEMENT_THEORY = SGP/SGP4

EPOCH          = 2026-03-30T05:27:14.908032
MEAN_MOTION    = 14.87777543
ECCENTRICITY   = .0001739
INCLINATION    = 98.1673
RA_OF_ASC_NODE = 352.0722
ARG_OF_PERICENTER = 47.1578
MEAN_ANOMALY   = 312.9784

EPHEMERIS_TYPE = 0
CLASSIFICATION_TYPE = U
NORAD_CAT_ID   = 25977
ELEMENT_SET_NO = 999
REV_AT_EPOCH   = 68831
BSTAR          = .23738375E-3
MEAN_MOTION_DOT = .2108E-4
MEAN_MOTION_DDOT = 0

CCSDS_OMM_VERS = 2.0
CREATION_DATE  = 
ORIGINATOR     = 

OBJECT_NAME    = TERRA
OBJECT_ID      = 1999-068A
CENTER_NAME    = EARTH
REF_FRAME      = TEME
TIME_SYSTEM    = UTC
MEAN_ELEMENT_THEORY = SGP/SGP4

EPOCH          = 2026-03-30T06:09:53.904960
MEAN_MOTION    = 14.61036689
ECCENTRICITY   = .00035985
INCLINATION    = 97.9549
RA_OF_ASC_NODE = 141.9015
ARG_OF_PERICENTER = 108.8315
MEAN_ANOMALY   = 290.3882

EPHEMERIS_TYPE = 0
CLASSIFICATION_TYPE = U
NORAD_CAT_ID   = 25994
ELEMENT_SET_NO = 999
REV_AT_EPOCH   = 39808
BSTAR          = .12560854E-3
MEAN_MOTION_DOT = .572E-5
MEAN_MOTION_DDOT = 0

CCSDS_OMM_VERS = 2.0
CREATION_DATE  = 
ORIGINATOR     = 

OBJECT_NAME    = SL-16 R/B
OBJECT_ID      = 2000-006B
CENTER_NAME    = EARTH
REF_FRAME      = TEME
TIME_SYSTEM    = UTC
MEAN_ELEMENT_THEORY = SGP/SGP4

EPOCH          = 2026-03-30T05:15:01.262304
MEAN_MOTION    = 14.15828263
ECCENTRICITY   = .00156255
INCLINATION    = 71.0026
RA_OF_ASC_NODE = 54.6677
ARG_OF_PERICENTER = 157.7080
MEAN_ANOMALY   = 202.4726

EPHEMERIS_TYPE = 0
CLASSIFICATION_TYPE = U
NORAD_CAT_ID   = 26070
ELEMENT_SET_NO = 999
REV_AT_EPOCH   = 35146
BSTAR          = .18595226E-3
MEAN_MOTION_DOT = .318E-5
MEAN_MOTION_DDOT = 0

CCSDS_OMM_VERS = 2.0
CREATION_DATE  = 
ORIGINATOR     = 

OBJECT_NAME    = TITAN 4B R/B
OBJECT_ID      = 2000-047B
CENTER_NAME    = EARTH
REF_FRAME      = TEME
TIME_SYSTEM    = UTC
MEAN_ELEMENT_THEORY = SGP/SGP4

EPOCH          = 2026-03-30T04:03:16.444512
MEAN_MOTION    = 15.09752161
ECCENTRICITY   = .00398653
INCLINATION    = 67.9917
RA_OF_ASC_NODE = 342.9173
ARG_OF_PERICENTER = 11.3871
MEAN_ANOMALY   = 348.8170

EPHEMERIS_TYPE = 0
CLASSIFICATION_TYPE = U
NORAD_CAT_ID   = 26474
ELEMENT_SET_NO = 999
REV_AT_EPOCH   = 39600
BSTAR          = .3193159E-3
MEAN_MOTION_DOT = .5128E-4
MEAN_MOTION_DDOT = 0

CCSDS_OMM_VERS = 2.0
CREATION_DATE  = 
ORIGINATOR     = 

OBJECT_NAME    = ENVISAT
OBJECT_ID      = 2002-009A
CENTER_NAME    = EARTH
REF_FRAME      = TEME
TIME_SYSTEM    = UTC
MEAN_ELEMENT_THEORY = SGP/SGP4

EPOCH          = 2026-03-30T06:47:17.721600
MEAN_MOTION    = 14.39044102
ECCENTRICITY   = .00012128
INCLINATION    = 98.3761
RA_OF_ASC_NODE = 42.3942
ARG_OF_PERICENTER = 81.8467
MEAN_ANOMALY   = 83.4383

EPHEMERIS_TYPE = 0
CLASSIFICATION_TYPE = U
NORAD_CAT_ID   = 27386
ELEMENT_SET_NO = 999
REV_AT_EPOCH   = 26213
BSTAR          = .60485777E-4
MEAN_MOTION_DOT = .144E-5
MEAN_MOTION_DDOT = 0

CCSDS_OMM_VERS = 2.0
CREATION_DATE  = 
ORIGINATOR     = 

OBJECT_NAME    = IDEFIX & ARIANE 42P R/B
OBJECT_ID      = 2002-021B
CENTER_NAME    = EARTH
REF_FRAME      = TEME
TIME_SYSTEM    = UTC
MEAN_ELEMENT_THEORY = SGP/SGP4

EPOCH          = 2026-03-30T01:15:12.936384
MEAN_MOTION    = 14.31039901
ECCENTRICITY   = .00126412
INCLINATION    = 98.5893
RA_OF_ASC_NODE = 27.4179
ARG_OF_PERICENTER = 124.2025
MEAN_ANOMALY   = 236.0358

EPHEMERIS_TYPE = 0
CLASSIFICATION_TYPE = U
NORAD_CAT_ID   = 27422
ELEMENT_SET_NO = 999
REV_AT_EPOCH   = 24693
BSTAR          = .14103902E-3
MEAN_MOTION_DOT = .328E-5
MEAN_MOTION_DDOT = 0

